{
  "type": "FeatureCollection",
  "features": [
    {
      "type": "Feature",
      "properties": {
        "norad_id": 34589,
        "name": "COSMOS 2251 DEB",
        "group": "cosmos-2251-debris",
        "lat": 48.646327584238556,
        "lon": 66.50546154201332,
        "alt_km": 846.6853558382008,
        "timestamp": "2025-12-17T19:34:08.432394+00:00",
        "meta_object_name": "COSMOS 2251 DEB",
        "meta_object_id": "1993-036WB",
        "meta_epoch": "2025-12-17T03:53:05.853120",
        "meta_mean_motion": 13.86056488,
        "meta_eccentricity": 0.02520625,
        "meta_inclination": 73.9259,
        "meta_ra_of_asc_node": 48.497,
        "meta_arg_of_pericenter": 350.9709,
        "meta_mean_anomaly": 38.3411,
        "meta_ephemeris_type": 0,
        "meta_classification_type": "U",
        "meta_norad_cat_id": 34589,
        "meta_element_set_no": 999,
        "meta_rev_at_epoch": 84773,
        "meta_bstar": 0.00026113807,
        "meta_mean_motion_dot": 3.61e-06,
        "meta_mean_motion_ddot": 0,
        "tle_line1": "1 34589U 93036WB  25351.16187330  .00000361  00000+0  26114-3 0  9991",
        "tle_line2": "2 34589  73.9259  48.4970 0252062 350.9709  38.3411 13.86056488847736"
      },
      "geometry": {
        "type": "Point",
        "coordinates": [
          66.50546154201332,
          48.646327584238556
        ]
      }
    },
    {
      "type": "Feature",
      "properties": {
        "norad_id": 34590,
        "name": "COSMOS 2251 DEB",
        "group": "cosmos-2251-debris",
        "lat": -28.357931665924045,
        "lon": 141.83265138496233,
        "alt_km": 745.1578012917798,
        "timestamp": "2025-12-17T19:34:08.432404+00:00",
        "meta_object_name": "COSMOS 2251 DEB",
        "meta_object_id": "1993-036WC",
        "meta_epoch": "2025-12-17T03:49:48.319392",
        "meta_mean_motion": 14.54831057,
        "meta_eccentricity": 0.00679827,
        "meta_inclination": 74.044,
        "meta_ra_of_asc_node": 314.1893,
        "meta_arg_of_pericenter": 82.4697,
        "meta_mean_anomaly": 293.2035,
        "meta_ephemeris_type": 0,
        "meta_classification_type": "U",
        "meta_norad_cat_id": 34590,
        "meta_element_set_no": 999,
        "meta_rev_at_epoch": 89185,
        "meta_bstar": 0.00011939176,
        "meta_mean_motion_dot": 4.99e-06,
        "meta_mean_motion_ddot": 0,
        "tle_line1": "1 34590U 93036WC  25351.15958703  .00000499  00000+0  11939-3 0  9993",
        "tle_line2": "2 34590  74.0440 314.1893 0067982  82.4697 293.2035 14.54831057891852"
      },
      "geometry": {
        "type": "Point",
        "coordinates": [
          141.83265138496233,
          -28.357931665924045
        ]
      }
    },
    {
      "type": "Feature",
      "properties": {
        "norad_id": 34609,
        "name": "COSMOS 2251 DEB",
        "group": "cosmos-2251-debris",
        "lat": 72.45700570962394,
        "lon": -150.01438614046208,
        "alt_km": 891.9904803865966,
        "timestamp": "2025-12-17T19:34:08.432414+00:00",
        "meta_object_name": "COSMOS 2251 DEB",
        "meta_object_id": "1993-036WE",
        "meta_epoch": "2025-12-17T07:26:23.697600",
        "meta_mean_motion": 14.21809991,
        "meta_eccentricity": 0.0145358,
        "meta_inclination": 73.7333,
        "meta_ra_of_asc_node": 98.3689,
        "meta_arg_of_pericenter": 317.1482,
        "meta_mean_anomaly": 72.6187,
        "meta_ephemeris_type": 0,
        "meta_classification_type": "U",
        "meta_norad_cat_id": 34609,
        "meta_element_set_no": 999,
        "meta_rev_at_epoch": 86697,
        "meta_bstar": 0.00051138654,
        "meta_mean_motion_dot": 1.225e-05,
        "meta_mean_motion_ddot": 0,
        "tle_line1": "1 34609U 93036WE  25351.30999650  .00001225  00000+0  51139-3 0  9991",
        "tle_line2": "2 34609  73.7333  98.3689 0145358 317.1482  72.6187 14.21809991866976"
      },
      "geometry": {
        "type": "Point",
        "coordinates": [
          -150.01438614046208,
          72.45700570962394
        ]
      }
    },
    {
      "type": "Feature",
      "properties": {
        "norad_id": 34610,
        "name": "COSMOS 2251 DEB",
        "group": "cosmos-2251-debris",
        "lat": -8.834384486736054,
        "lon": -109.13420877294752,
        "alt_km": 761.3720950706484,
        "timestamp": "2025-12-17T19:34:08.432424+00:00",
        "meta_object_name": "COSMOS 2251 DEB",
        "meta_object_id": "1993-036WF",
        "meta_epoch": "2025-12-16T19:43:22.866816",
        "meta_mean_motion": 14.07083274,
        "meta_eccentricity": 0.01805005,
        "meta_inclination": 74.0182,
        "meta_ra_of_asc_node": 255.1605,
        "meta_arg_of_pericenter": 24.866,
        "meta_mean_anomaly": 336.104,
        "meta_ephemeris_type": 0,
        "meta_classification_type": "U",
        "meta_norad_cat_id": 34610,
        "meta_element_set_no": 999,
        "meta_rev_at_epoch": 85617,
        "meta_bstar": 0.0012903668,
        "meta_mean_motion_dot": 2.479e-05,
        "meta_mean_motion_ddot": 0,
        "tle_line1": "1 34610U 93036WF  25350.82179244  .00002479  00000+0  12904-2 0  9996",
        "tle_line2": "2 34610  74.0182 255.1605 0180500  24.8660 336.1040 14.07083274856172"
      },
      "geometry": {
        "type": "Point",
        "coordinates": [
          -109.13420877294752,
          -8.834384486736054
        ]
      }
    },
    {
      "type": "Feature",
      "properties": {
        "norad_id": 34611,
        "name": "COSMOS 2251 DEB",
        "group": "cosmos-2251-debris",
        "lat": 66.58326419761096,
        "lon": -130.1724973040644,
        "alt_km": 641.1780768813869,
        "timestamp": "2025-12-17T19:34:08.432434+00:00",
        "meta_object_name": "COSMOS 2251 DEB",
        "meta_object_id": "1993-036WG",
        "meta_epoch": "2025-12-17T07:54:02.801376",
        "meta_mean_motion": 14.69592129,
        "meta_eccentricity": 0.00222028,
        "meta_inclination": 74.0537,
        "meta_ra_of_asc_node": 92.083,
        "meta_arg_of_pericenter": 132.0255,
        "meta_mean_anomaly": 284.3431,
        "meta_ephemeris_type": 0,
        "meta_classification_type": "U",
        "meta_norad_cat_id": 34611,
        "meta_element_set_no": 999,
        "meta_rev_at_epoch": 88458,
        "meta_bstar": 0.00119743,
        "meta_mean_motion_dot": 7.118e-05,
        "meta_mean_motion_ddot": 0,
        "tle_line1": "1 34611U 93036WG  25351.32919909  .00007118  00000+0  11974-2 0  9994",
        "tle_line2": "2 34611  74.0537  92.0830 0022202 132.0255 284.3431 14.69592129884587"
      },
      "geometry": {
        "type": "Point",
        "coordinates": [
          -130.1724973040644,
          66.58326419761096
        ]
      }
    },
    {
      "type": "Feature",
      "properties": {
        "norad_id": 34613,
        "name": "COSMOS 2251 DEB",
        "group": "cosmos-2251-debris",
        "lat": 49.14066654647921,
        "lon": 69.91631080839217,
        "alt_km": 728.7390053487179,
        "timestamp": "2025-12-17T19:34:08.432444+00:00",
        "meta_object_name": "COSMOS 2251 DEB",
        "meta_object_id": "1993-036WJ",
        "meta_epoch": "2025-12-16T00:58:31.243296",
        "meta_mean_motion": 14.26454619,
        "meta_eccentricity": 0.01102473,
        "meta_inclination": 73.9638,
        "meta_ra_of_asc_node": 272.5587,
        "meta_arg_of_pericenter": 103.5153,
        "meta_mean_anomaly": 273.8209,
        "meta_ephemeris_type": 0,
        "meta_classification_type": "U",
        "meta_norad_cat_id": 34613,
        "meta_element_set_no": 999,
        "meta_rev_at_epoch": 86510,
        "meta_bstar": 0.00095440148,
        "meta_mean_motion_dot": 2.425e-05,
        "meta_mean_motion_ddot": 0,
        "tle_line1": "1 34613U 93036WJ  25350.04063939  .00002425  00000+0  95440-3 0  9994",
        "tle_line2": "2 34613  73.9638 272.5587 0110247 103.5153 273.8209 14.26454619865107"
      },
      "geometry": {
        "type": "Point",
        "coordinates": [
          69.91631080839217,
          49.14066654647921
        ]
      }
    },
    {
      "type": "Feature",
      "properties": {
        "norad_id": 34614,
        "name": "COSMOS 2251 DEB",
        "group": "cosmos-2251-debris",
        "lat": -54.35382671661012,
        "lon": 178.531473819441,
        "alt_km": 837.4053334209148,
        "timestamp": "2025-12-17T19:34:08.432454+00:00",
        "meta_object_name": "COSMOS 2251 DEB",
        "meta_object_id": "1993-036WK",
        "meta_epoch": "2025-12-16T00:21:28.707840",
        "meta_mean_motion": 14.17601251,
        "meta_eccentricity": 0.0198196,
        "meta_inclination": 73.8837,
        "meta_ra_of_asc_node": 337.994,
        "meta_arg_of_pericenter": 331.3985,
        "meta_mean_anomaly": 83.6306,
        "meta_ephemeris_type": 0,
        "meta_classification_type": "U",
        "meta_norad_cat_id": 34614,
        "meta_element_set_no": 999,
        "meta_rev_at_epoch": 84813,
        "meta_bstar": 0.0047337499,
        "meta_mean_motion_dot": 0.00011666,
        "meta_mean_motion_ddot": 0,
        "tle_line1": "1 34614U 93036WK  25350.01491560  .00011666  00000+0  47337-2 0  9995",
        "tle_line2": "2 34614  73.8837 337.9940 0198196 331.3985  83.6306 14.17601251848135"
      },
      "geometry": {
        "type": "Point",
        "coordinates": [
          178.531473819441,
          -54.35382671661012
        ]
      }
    }
  ]
}